OBJECT_NAME,OBJECT_ID,EPOCH,MEAN_MOTION,ECCENTRICITY,INCLINATION,RA_OF_ASC_NODE,ARG_OF_PERICENTER,MEAN_ANOMALY,EPHEMERIS_TYPE,CLASSIFICATION_TYPE,NORAD_CAT_ID,ELEMENT_SET_NO,REV_AT_EPOCH,BSTAR,MEAN_MOTION_DOT,MEAN_MOTION_DDOT
SIRION PATHFINDER-2,2018-099B,2026-06-28T16:15:17.704800,15.14646139,.00071501,97.4248,228.4616,256.0298,104.0139,0,U,43759,999,41436,.24629945E-3,.449E-4,0
CORVUS BC4,2018-099K,2026-06-28T15:11:58.609536,15.12582601,.0007066,97.4060,222.2784,331.9729,28.1121,0,U,43767,999,41413,.20424297E-3,.3502E-4,0
M2 PATHFINDER,2020-037E,2026-06-28T11:38:16.828800,15.04720535,.00126159,97.8137,10.8430,113.4463,246.8090,0,U,45727,999,32719,.21990654E-3,.3038E-4,0
NETSAT-4,2020-068U,2026-06-28T22:04:17.830848,15.44246926,.00031867,97.8597,189.1055,273.1005,86.9877,0,U,46504,999,31758,.36843454E-3,.16853E-3,0
NETSAT-3,2020-068V,2026-06-28T23:59:35.600640,15.43079982,.00029334,97.8646,187.3938,302.0333,58.0628,0,U,46505,999,31750,.38991346E-3,.17153E-3,0
NETSAT-1,2020-068W,2026-06-28T22:28:16.709664,15.34904310,.00035223,97.8739,181.5171,352.2074,7.9112,0,U,46506,999,31710,.34166984E-3,.11484E-3,0
NETSAT-2,2020-068X,2026-06-28T22:38:04.437888,15.46494913,.00017131,97.8607,189.0693,337.5667,22.5506,0,U,46507,999,31755,.45199775E-3,.22362E-3,0
GREENCUBE (IO-117),2022-080E,2026-06-28T16:50:00.384576,6.42583249,.00089876,70.1440,294.2410,287.1341,72.8335,0,U,53109,999,9280,0,-.3E-7,0
SITRO-AIS 5 (KATYS),2023-091L,2026-06-28T23:25:55.868448,15.29721262,.00122546,97.5062,243.9890,66.6991,293.5537,0,U,57176,999,16614,.40480935E-3,.11609E-3,0
SITRO-AIS 6 (CHIRKIN),2023-091AC,2026-06-28T22:00:34.956864,15.26153054,.00126964,97.5068,242.9857,70.1398,290.1207,0,U,57192,999,16607,.37859809E-3,.9731E-4,0
SITRO-AIS 8 (ANOKHIN),2023-091AD,2026-06-28T23:20:31.946208,15.32448003,.00111459,97.5058,245.6221,63.0762,297.1617,0,U,57193,999,16625,.42717709E-3,.13337E-3,0
SITRO-AIS 7 (FARTUSHNIY),2023-091AE,2026-06-28T22:08:35.654496,15.25836418,.00125771,97.5064,242.8102,71.1763,289.0838,0,U,57194,999,16606,.3898089E-3,.9926E-4,0
SITRO-AIS 10 (BURDAEV),2023-091AK,2026-06-28T22:53:56.980608,15.39043757,.00064994,97.5084,250.7801,43.5379,316.6378,0,U,57199,999,16657,.49589652E-3,.19128E-3,0
SITRO-AIS 9 (SHCHUKIN),2023-091AM,2026-06-28T22:03:46.226592,15.38544733,.00067699,97.5081,250.4651,43.5158,316.6620,0,U,57201,999,16655,.4913905E-3,.18647E-3,0
SITRO-AIS 12 (SMIRENNIY),2023-091AQ,2026-06-28T23:20:41.126208,15.38839579,.00062705,97.5096,250.9942,37.8501,322.3184,0,U,57204,999,16658,.49796181E-3,.19079E-3,0
SITRO-AIS 11 (SHEFFER),2023-091AU,2026-06-28T22:01:40.208736,15.39269146,.00061251,97.5092,251.1922,38.0044,322.1632,0,U,57208,999,16659,.48721608E-3,.18929E-3,0
SITRO-AIS 25,2024-039R,2026-06-28T23:12:12.058272,14.93566068,.01425006,95.3905,243.1874,287.0571,71.5086,0,U,59066,999,12648,.1783884E-3,.2259E-4,0
SITRO-AIS 26,2024-039S,2026-06-28T23:16:30.065088,14.93360338,.01428345,95.3905,243.0845,287.6474,70.9197,0,U,59067,999,12647,.18073021E-3,.2279E-4,0
SITRO-AIS 27,2024-039T,2026-06-28T22:28:53.461632,14.93784704,.01417619,95.3912,243.3391,286.3517,72.2161,0,U,59068,999,12649,.18976856E-3,.2416E-4,0
SITRO-AIS 28,2024-039U,2026-06-28T23:32:29.463648,14.93815945,.0141711,95.3909,243.4172,286.0103,72.5553,0,U,59071,999,12650,.20360989E-3,.2597E-4,0
GRBBETA,2024-128C,2026-06-28T23:12:27.029664,15.06707447,.00391282,61.9878,174.9341,137.1376,223.2779,0,U,60237,999,10804,.20672441E-3,.2918E-4,0
OOV-CUBE (TUBSAT-30),2024-128F,2026-06-28T08:48:26.031744,15.02811881,.00432378,61.9924,186.5879,136.2488,224.2043,0,U,60240,999,10779,.14068964E-3,.1714E-4,0
ROBUSTA-3A (MEDITERRANEE),2024-128J,2026-06-28T23:23:42.352800,15.11784670,.00399378,61.9841,166.5551,130.5265,229.9321,0,U,60243,999,10820,.30724677E-3,.5144E-4,0
LASARSAT,2024-247Q,2026-06-28T22:11:19.146624,15.47039150,.00069437,44.9719,196.2252,44.2886,315.8559,0,U,62391,999,8513,.5719268E-3,.29343E-3,0
CROCUBE,2024-247T,2026-06-28T07:51:18.669024,15.48984330,.00068544,44.9690,196.7325,45.5250,314.6200,0,U,62394,999,8507,.62422395E-3,.34355E-3,0
FORESAIL-1 PRIME,2025-276DS,2026-06-28T22:07:30.202176,15.18803900,.00037985,97.4203,252.9781,79.6445,280.5218,0,U,66778,999,3218,.20253518E-3,.4147E-4,0
KNACKSAT-2,1998-067XZ,2026-06-28T17:59:34.886976,15.60985813,.00085534,51.6274,236.2750,267.1864,92.8150,0,U,67683,999,2208,.48133706E-3,.40953E-3,0
