SIRION PATHFINDER-2     
1 43759U 18099B   26179.67728825  .00004490  00000+0  24630-3 0  9999
2 43759  97.4248 228.4616 0007150 256.0298 104.0139 15.14646139414364
CORVUS BC4              
1 43767U 18099K   26179.63331724  .00003502  00000+0  20424-3 0  9992
2 43767  97.4060 222.2784 0007066 331.9729  28.1121 15.12582601414134
M2 PATHFINDER           
1 45727U 20037E   26179.48491700  .00003038  00000+0  21991-3 0  9993
2 45727  97.8137  10.8430 0012615 113.4463 246.8090 15.04720535327198
NETSAT-4                
1 46504U 20068U   26179.91965082  .00016853  00000+0  36843-3 0  9999
2 46504  97.8597 189.1055 0003186 273.1005  86.9877 15.44246926317583
NETSAT-3                
1 46505U 20068V   26179.99971760  .00017153  00000+0  38991-3 0  9998
2 46505  97.8646 187.3938 0002933 302.0333  58.0628 15.43079982317505
NETSAT-1                
1 46506U 20068W   26179.93630451  .00011484  00000+0  34167-3 0  9994
2 46506  97.8739 181.5171 0003522 352.2074   7.9112 15.34904310317107
NETSAT-2                
1 46507U 20068X   26179.94310692  .00022362  00000+0  45200-3 0  9995
2 46507  97.8607 189.0693 0001713 337.5667  22.5506 15.46494913317553
GREENCUBE (IO-117)      
1 53109U 22080E   26179.70139334 -.00000003  00000+0  00000+0 0  9997
2 53109  70.1440 294.2410 0008987 287.1341  72.8335  6.42583249 92806
SITRO-AIS 5 (KATYS)     
1 57176U 23091L   26179.97634107  .00011609  00000+0  40481-3 0  9999
2 57176  97.5062 243.9890 0012254  66.6991 293.5537 15.29721262166142
SITRO-AIS 6 (CHIRKIN)   
1 57192U 23091AC  26179.91707126  .00009731  00000+0  37860-3 0  9993
2 57192  97.5068 242.9857 0012696  70.1398 290.1207 15.26153054166073
SITRO-AIS 8 (ANOKHIN)   
1 57193U 23091AD  26179.97259197  .00013337  00000+0  42718-3 0  9995
2 57193  97.5058 245.6221 0011145  63.0762 297.1617 15.32448003166252
SITRO-AIS 7 (FARTUSHNIY)
1 57194U 23091AE  26179.92263489  .00009926  00000+0  38981-3 0  9996
2 57194  97.5064 242.8102 0012577  71.1763 289.0838 15.25836418166065
SITRO-AIS 10 (BURDAEV)  
1 57199U 23091AK  26179.95413172  .00019128  00000+0  49590-3 0  9993
2 57199  97.5084 250.7801 0006499  43.5379 316.6378 15.39043757166571
SITRO-AIS 9 (SHCHUKIN)  
1 57201U 23091AM  26179.91928503  .00018647  00000+0  49139-3 0  9996
2 57201  97.5081 250.4651 0006769  43.5158 316.6620 15.38544733166554
SITRO-AIS 12 (SMIRENNIY)
1 57204U 23091AQ  26179.97269822  .00019079  00000+0  49796-3 0  9996
2 57204  97.5096 250.9942 0006270  37.8501 322.3184 15.38839579166583
SITRO-AIS 11 (SHEFFER)  
1 57208U 23091AU  26179.91782649  .00018929  00000+0  48722-3 0  9992
2 57208  97.5092 251.1922 0006125  38.0044 322.1632 15.39269146166593
SITRO-AIS 25            
1 59066U 24039R   26179.96680623  .00002259  00000+0  17839-3 0  9997
2 59066  95.3905 243.1874 0142500 287.0571  71.5086 14.93566068126486
SITRO-AIS 26            
1 59067U 24039S   26179.96979242  .00002279  00000+0  18073-3 0  9999
2 59067  95.3905 243.0845 0142834 287.6474  70.9197 14.93360338126479
SITRO-AIS 27            
1 59068U 24039T   26179.93672988  .00002416  00000+0  18977-3 0  9990
2 59068  95.3912 243.3391 0141761 286.3517  72.2161 14.93784704126494
SITRO-AIS 28            
1 59071U 24039U   26179.98089657  .00002597  00000+0  20361-3 0  9994
2 59071  95.3909 243.4172 0141711 286.0103  72.5553 14.93815945126507
GRBBETA                 
1 60237U 24128C   26179.96697951  .00002918  00000+0  20672-3 0  9991
2 60237  61.9878 174.9341 0039128 137.1376 223.2779 15.06707447108045
OOV-CUBE (TUBSAT-30)    
1 60240U 24128F   26179.36696796  .00001714  00000+0  14069-3 0  9991
2 60240  61.9924 186.5879 0043237 136.2488 224.2043 15.02811881107796
ROBUSTA-3A (MEDITERRAN*)
1 60243U 24128J   26179.97479575  .00005144  00000+0  30725-3 0  9993
2 60243  61.9841 166.5551 0039937 130.5265 229.9321 15.11784670108207
LASARSAT                
1 62391U 24247Q   26179.92452716  .00029343  00000+0  57193-3 0  9999
2 62391  44.9719 196.2252 0006943  44.2886 315.8559 15.47039150 85136
CROCUBE                 
1 62394U 24247T   26179.32729941  .00034355  00000+0  62422-3 0  9993
2 62394  44.9690 196.7325 0006854  45.5250 314.6200 15.48984330 85076
FORESAIL-1 PRIME        
1 66778U 25276DS  26179.92187734  .00004147  00000+0  20254-3 0  9993
2 66778  97.4203 252.9781 0003798  79.6445 280.5218 15.18803900 32182
KNACKSAT-2              
1 67683U 98067XZ  26179.74970934  .00040953  00000+0  48134-3 0  9991
2 67683  51.6274 236.2750 0008553 267.1864  92.8150 15.60985813 22080
